# Default set of hidden objects:
HIDETHESE = Amalthea

 QUICK version 14.1 of 95/08/09
>>>    ***Warning: The default SPK ephemeris file was not found,
             and no alternative files were specified.
             Analytic ephemeris will be used for all bodies.
    NAME =  Sun                    
  CENTER =  Sun                    
  RPL    =   696000.00000000   
  GM     =     132.71244193E+09
  OJ2    =   0.0000000000000   
  PV =   0.12235349  -0.03103787   0.99200115
  PM =  -0.58378693  -0.81056599   0.04664322
  ROT    =    39.4011111111E-03

# Shoemaker-Levy 9
# T = 1994 Apr. 1.16950 TT     Peri. = 355.18047  )
# e = 0.2079375                Node  = 220.90770  ) J2000.0 
# q = 5.3822111 AU             Incl. =   5.80789  )
#                             o                     y
# a = 6.7951848 AU       n = 0.05564193       P = 17.71  
NAME = SL9
CENTER = Sun
ELEM = 1016545560 0.2079375 5.80789 220.90770 355.18047 0
PERIOD = 558895963
RPL = 3000
GM = 0
OJ2 = 0
PV = 0 0 1
PM = 1 0 0
ROT = 1

NAME = Hyakutake
# CENTER = Sun
# # elem a e i node peri anom
# # Since we can't deal with its assumed parabolic orbit,
# # let's call it an ellipse with semimajor axis 100au.
# # Then period = a^(3/2) = 1000 years, and
# # eccentricity e = 1 - (perihelion distance / a)
# # mean anomaly = 360 * (perihelion_date - epoch) / period
# #ELEM = 14959792700.  .9976981  124.88607  188.06079 130.17807 -.120653
# #PERIOD = 31558213600.
ELEM = 119372607647. .9997117 124.90416 188.0464 130.206824 -.0053527
PERIOD = 711346296958.
RPL = 1000.
GM = 0
OJ2 = 0
PV = 0 0 1
PM = 1 0 0
ROT = 1

# Hale-Bopp
#e    0.995107808       .000001002
#q    0.914103842       .000001861
#Tp   2450539.6353558   .0002557    1997 Apr  1.13536
#Node 282.4708075       .0000054
#w    130.5910110       .0000886
#i     89.4293189       .0000336

NAME = Hale-Bopp
CENTER = Sun
ELEM = 27952304371.11525 0.995107808 89.4293189 282.4708075 130.5910110 -0.17637487623957285
#ELEM = 27952304371.11525 0.995107808 89.4293189 282.4708075 130.5910110 -0.17640487623957285
PERIOD = 80602863937.444351
RPL = 3000.
GM = 0
OJ2 = 0
PV = 0 0 1
PM = 1 0 0
ROT = 1


    NAME =  Mercury                
  CENTER =  Sun                    
      ELEM =   57909135.0000001      0.205633823114120       7.00500338384609       48.3370346321982       29.1123765821322       309.755552336924    
  PERIOD =   7600543.7801377   
   TORBIT =  0.22001463556190    0.97369038821031      59.3345434415E-03
          -0.97540893718019    0.22040282499153     2.184374615241E-06
              223.89009804E-09 -8.919986450500E-06 0.99999999996019   
   RPL    =   2439.7000000000   
  GM     =   22032.080804338   
  OJ2    =     100.00000000E-06
  PV =   0.09128460  -0.08100423   0.99252478
  PM =   0.99530602   0.03959055  -0.08830924
  ROT    =    17.0513958333E-03
    NAME =  Venus                  
  CENTER =  Sun                    
      ELEM =   108208880.000000      0.677494541899907E-02   3.39472059282119       76.6917225475476       54.8790913212884       227.292882773319    
  PERIOD =   19414150.908636   
   TORBIT = -0.66214849676266    0.74780581321528      48.4338100544E-03
          -0.74868465823267   -0.66292630246055    -5.745670554321E-06
              223.89009804E-09 -8.919986450500E-06 0.99999999996019   
   RPL    =   6051.8000000000   
  GM     =   324858.77050649   
  OJ2    =   0.0000000000000   
  PV =  -0.01820958  -0.01102620  -0.99977339
  PM =  -0.98249309   0.18562374   0.01584765
  ROT    =   4.114803055556E-03
    NAME =  Earth                  
  CENTER =  Sun                    
      ELEM =   149597927.000000      0.167107976049685E-01  0.511235781157198E-03                 0.       102.927800928308       356.085136751077    
  PERIOD =   31558213.605578   
   TORBIT = -0.22372306112128    0.97465275449613     8.696592687911E-06
          -0.97465275453491   -0.22372306111432    -1.777391573103E-06
              223.89009804E-09 -8.919986450500E-06 0.99999999996019   
   RPL    =   6378.1400000000   
  GM     =   398600.48504296   
  OJ2    =   1.082630000000E-03
  PV =  -0.00038909   0.39777697   0.91748206
  PM =  -0.15158527   0.90685641  -0.39323447
  ROT    =   1.0027378777778   
    NAME =  Moon                   
  CENTER =  Earth                  
      ELEM =   366638.857960234      0.862097773639523E-01   5.05705659714622      -156.525664633413       48.2874525689179       136.549995439710    
  #PERIOD =   2209371.2285461   
  # The above period, 25.57 days, gives wildly wrong positions for the moon.
  # Let's call it 27.3216 days (the reciprocal of the rotation rate!),
  # which is at least close.  - slevy 96.02.24
  #PERIOD = 2360591
  # No, better yet, let's use the anomalistic month (perigee-to-perigee).
  # We now deal with precession of the nodes and of the perigee-point.
  PERIOD = 2380713
   TORBIT = -0.31412689373789   -0.94709790331494      65.8016425860E-03
           0.94915492201732   -0.31480936136202    -3.020601626509E-06
              223.89009804E-09 -8.919986450500E-06 0.99999999996019   
   RPL    =   1737.4000000000   
  GM     =   4902.7927809104   
  OJ2    =   0.0000000000000   
  PV =   0.01045170  -0.02454199   0.99964416
  PM =  -0.88384851  -0.46776787  -0.00224303
  ROT    =    36.6010037317E-03
    NAME =  Mars                   
  CENTER =  Sun                    
      ELEM =   227941040.000000      0.934012067020093E-01   1.85003831712244       49.5709808854595      -73.5293854267102       333.007708743042    
  PERIOD =   59355072.030002   
   TORBIT =  0.91345999762470   -0.40574915814110     -30.9588986767E-03
           0.40594397203013    0.91389796558884     8.061070634815E-06
              223.89009804E-09 -8.919986450500E-06 0.99999999996019   
   RPL    =   3397.0000000000   
  GM     =   42828.286853400   
  OJ2    =   1.962800000000E-03
  PV =   0.44616635  -0.05545894   0.89323004
  PM =   0.70116691   0.64189640  -0.31037714
  ROT    =  0.97469995277778   
    NAME =  Jupiter                
  CENTER =  Sun                    
      ELEM =   778328370.000001      0.484940925051333E-01   1.30328695552017       100.442382440723      -86.2818081877551       258.560395991270    
  PERIOD =   374514243.39432   
   TORBIT =  0.96936004484284    0.24459345499075     -22.6968111852E-03
          -0.24465628831781    0.96960987026267     8.703683025739E-06
              223.89009804E-09 -8.919986450500E-06 0.99999999996019   
   RPL    =   71492.000000000   
  GM     =   126685807.78645   
  OJ2    =    14.7330000000E-03
  PV =  -0.01465187  -0.03590618   0.99924775
  PM =   0.09947714   0.99434466   0.03718862
  ROT    =   2.4181555555556   
    NAME =  Io                     
  CENTER =  Jupiter                
      ELEM =   422176.414700439      0.429960943733779E-02   2.22344389586279      -21.4979514824750       82.2936722400740       74.6379886302156    
  PERIOD =   153128.78510386   
   TORBIT =  0.48837654525464    0.87178586649435      38.4415533745E-03
          -0.87262599472436    0.48807502000396      17.5113728605E-03
             22.3679819395E-03  4.122398466404E-03 0.99974130614616   
   RPL    =   1821.3000000000   
  GM     =   5934.0000000000   
  OJ2    =   0.0000000000000   
  PV =  -0.01465187  -0.03590618   0.99924775
  PM =   0.71834094  -0.69554094  -0.01446006
  ROT    =  0.56524707872263   
    NAME =  Europa                 
  CENTER =  Jupiter                
      ELEM =   671359.081085063      0.987396461162177E-02   2.03768042253674      -32.8845406744353      -95.9858341550012       41.0250738809988    
  PERIOD =   307077.63522735   
   TORBIT = -0.62736136435436   -0.77792489230157     -35.3635469520E-03
           0.77865554685695   -0.62727622690730     -14.8349083530E-03
             22.3679819395E-03  4.122398466404E-03 0.99974130614616   
   RPL    =   1565.0000000000   
  GM     =   3196.0000000000   
  OJ2    =   0.0000000000000   
  PV =  -0.01465187  -0.03590618   0.99924775
  PM =  -0.05104010   0.99807905   0.03511579
  ROT    =  0.28159644979883   
    NAME =  Ganymede               
  CENTER =  Jupiter                
      ELEM =   1071005.55921870      0.344049284797140E-03   2.14616626469744      -16.3202396559783      -33.9490272334300       120.829660175708    
  PERIOD =   618733.27624123   
   TORBIT =  0.63913077165716   -0.76881352630682     -20.9193328910E-03
           0.76856521226942    0.63946398341793     -19.8325086800E-03
             22.3679819395E-03  4.122398466404E-03 0.99974130614616   
   RPL    =   2634.0000000000   
  GM     =   9885.0000000000   
  OJ2    =   0.0000000000000   
  PV =  -0.01465187  -0.03590618   0.99924775
  PM =  -0.33203978  -0.94246974  -0.03873463
  ROT    =  0.13977113350458   
    NAME =  Callisto               
  CENTER =  Jupiter                
      ELEM =   1883463.58770789      0.709538923807399E-02   2.03721378468628      -22.5187068431253       11.8257870230139       222.188092173173    
  PERIOD =   1442951.4825643   
   TORBIT =  0.98256328415659   -0.18578583113039     7.281317093220E-03
           0.18584323189364    0.98254511204272    -8.209504265931E-03
             22.3679819395E-03  4.122398466404E-03 0.99974130614616   
   RPL    =   2403.0000000000   
  GM     =   7172.0000000000   
  OJ2    =   0.0000000000000   
  PV =  -0.01465187  -0.03590618   0.99924775
  PM =   0.85736398   0.51377422   0.03103300
  ROT    =    59.9196427657E-03
    NAME =  Amalthea               
  CENTER =  Jupiter                
      ELEM =   180495.140075611      0.275124860110183E-02   2.49341910062166      -18.1851258763923      0.902828908371423       179.999999320937    
  PERIOD =   42806.937153568   
   TORBIT =  0.95155957764290   -0.30746437980801       159.20222576E-06
           0.30744808077739    0.95150354109247     -10.8022643361E-03
             22.3679819395E-03  4.122398466404E-03 0.99974130614616   
   RPL    =   86.200000000000   
  GM     =  0.44000000000000   
  OJ2    =   0.0000000000000   
